{
  "links" : {
    "next" : "https://api.nasa.gov/neo/rest/v1/feed?start_date=2011-11-23&end_date=2011-11-23&detailed=true&api_key=t0TVs3DtDT2H8Oy2Zy8m2eVrNsAVKAexjcZXUckd",
    "prev" : "https://api.nasa.gov/neo/rest/v1/feed?start_date=2011-11-21&end_date=2011-11-21&detailed=true&api_key=t0TVs3DtDT2H8Oy2Zy8m2eVrNsAVKAexjcZXUckd",
    "self" : "https://api.nasa.gov/neo/rest/v1/feed?start_date=2011-11-22&end_date=2011-11-22&detailed=true&api_key=t0TVs3DtDT2H8Oy2Zy8m2eVrNsAVKAexjcZXUckd"
  },
  "element_count" : 6,
  "near_earth_objects" : {
    "2011-11-22" : [ {
      "links" : {
        "self" : "https://api.nasa.gov/neo/rest/v1/neo/3720918?api_key=t0TVs3DtDT2H8Oy2Zy8m2eVrNsAVKAexjcZXUckd"
      },
      "neo_reference_id" : "3720918",
      "name" : "(2015 LJ)",
      "nasa_jpl_url" : "http://ssd.jpl.nasa.gov/sbdb.cgi?sstr=3720918",
      "absolute_magnitude_h" : 24.7,
      "estimated_diameter" : {
        "kilometers" : {
          "estimated_diameter_min" : 0.0305179233,
          "estimated_diameter_max" : 0.0682401509
        },
        "meters" : {
          "estimated_diameter_min" : 30.5179232594,
          "estimated_diameter_max" : 68.2401509401
        },
        "miles" : {
          "estimated_diameter_min" : 0.0189629525,
          "estimated_diameter_max" : 0.0424024508
        },
        "feet" : {
          "estimated_diameter_min" : 100.1244233463,
          "estimated_diameter_max" : 223.8850168104
        }
      },
      "is_potentially_hazardous_asteroid" : false,
      "close_approach_data" : [ {
        "close_approach_date" : "2011-11-22",
        "epoch_date_close_approach" : 1321948800000,
        "relative_velocity" : {
          "kilometers_per_second" : "5.8457231228",
          "kilometers_per_hour" : "21044.6032419861",
          "miles_per_hour" : "13076.298053333"
        },
        "miss_distance" : {
          "astronomical" : "0.3624259433",
          "lunar" : "140.9836883545",
          "kilometers" : "54218152",
          "miles" : "33689596"
        },
        "orbiting_body" : "Earth"
      } ],
      "orbital_data" : {
        "orbit_id" : "30",
        "orbit_determination_date" : "2017-04-06 08:33:13",
        "orbit_uncertainty" : "4",
        "minimum_orbit_intersection" : ".0476363",
        "jupiter_tisserand_invariant" : "5.186",
        "epoch_osculation" : "2458000.5",
        "eccentricity" : ".1519675188441978",
        "semi_major_axis" : "1.231567304685216",
        "inclination" : "2.225525934560179",
        "ascending_node_longitude" : "188.163002708304",
        "orbital_period" : "499.2127320203042",
        "perihelion_distance" : "1.044409077102568",
        "perihelion_argument" : "103.7985577082213",
        "aphelion_distance" : "1.418725532267865",
        "perihelion_time" : "2458217.901911209144",
        "mean_anomaly" : "203.2237741241973",
        "mean_motion" : ".7211354537034482",
        "equinox" : "J2000"
      }
    }, {
      "links" : {
        "self" : "https://api.nasa.gov/neo/rest/v1/neo/3765610?api_key=t0TVs3DtDT2H8Oy2Zy8m2eVrNsAVKAexjcZXUckd"
      },
      "neo_reference_id" : "3765610",
      "name" : "(2016 XR1)",
      "nasa_jpl_url" : "http://ssd.jpl.nasa.gov/sbdb.cgi?sstr=3765610",
      "absolute_magnitude_h" : 24.2,
      "estimated_diameter" : {
        "kilometers" : {
          "estimated_diameter_min" : 0.0384197891,
          "estimated_diameter_max" : 0.0859092601
        },
        "meters" : {
          "estimated_diameter_min" : 38.4197891064,
          "estimated_diameter_max" : 85.9092601232
        },
        "miles" : {
          "estimated_diameter_min" : 0.0238729428,
          "estimated_diameter_max" : 0.0533815229
        },
        "feet" : {
          "estimated_diameter_min" : 126.0491808919,
          "estimated_diameter_max" : 281.8545369825
        }
      },
      "is_potentially_hazardous_asteroid" : false,
      "close_approach_data" : [ {
        "close_approach_date" : "2011-11-22",
        "epoch_date_close_approach" : 1321948800000,
        "relative_velocity" : {
          "kilometers_per_second" : "6.9047681775",
          "kilometers_per_hour" : "24857.1654389807",
          "miles_per_hour" : "15445.2759362377"
        },
        "miss_distance" : {
          "astronomical" : "0.0967053623",
          "lunar" : "37.6183853149",
          "kilometers" : "14466916",
          "miles" : "8989325"
        },
        "orbiting_body" : "Earth"
      } ],
      "orbital_data" : {
        "orbit_id" : "8",
        "orbit_determination_date" : "2017-04-06 08:21:40",
        "orbit_uncertainty" : "7",
        "minimum_orbit_intersection" : ".0968286",
        "jupiter_tisserand_invariant" : "5.408",
        "epoch_osculation" : "2458000.5",
        "eccentricity" : ".1285430524646065",
        "semi_major_axis" : "1.158520632389988",
        "inclination" : "11.64326186641846",
        "ascending_node_longitude" : "74.20609371681238",
        "orbital_period" : "455.4640314038496",
        "perihelion_distance" : "1.009600853959352",
        "perihelion_argument" : "286.5095039516021",
        "aphelion_distance" : "1.307440410820623",
        "perihelion_time" : "2458107.343999165952",
        "mean_anomaly" : "275.5502146213659",
        "mean_motion" : ".7904026996169017",
        "equinox" : "J2000"
      }
    }, {
      "links" : {
        "self" : "https://api.nasa.gov/neo/rest/v1/neo/3596676?api_key=t0TVs3DtDT2H8Oy2Zy8m2eVrNsAVKAexjcZXUckd"
      },
      "neo_reference_id" : "3596676",
      "name" : "(2012 BB77)",
      "nasa_jpl_url" : "http://ssd.jpl.nasa.gov/sbdb.cgi?sstr=3596676",
      "absolute_magnitude_h" : 18.9,
      "estimated_diameter" : {
        "kilometers" : {
          "estimated_diameter_min" : 0.4411182,
          "estimated_diameter_max" : 0.9863702813
        },
        "meters" : {
          "estimated_diameter_min" : 441.1181999969,
          "estimated_diameter_max" : 986.3702813054
        },
        "miles" : {
          "estimated_diameter_min" : 0.2740980571,
          "estimated_diameter_max" : 0.6129018881
        },
        "feet" : {
          "estimated_diameter_min" : 1447.2382352778,
          "estimated_diameter_max" : 3236.1230737181
        }
      },
      "is_potentially_hazardous_asteroid" : false,
      "close_approach_data" : [ {
        "close_approach_date" : "2011-11-22",
        "epoch_date_close_approach" : 1321948800000,
        "relative_velocity" : {
          "kilometers_per_second" : "15.9505222846",
          "kilometers_per_hour" : "57421.8802245215",
          "miles_per_hour" : "35679.7232983978"
        },
        "miss_distance" : {
          "astronomical" : "0.3995142402",
          "lunar" : "155.4110412598",
          "kilometers" : "59766480",
          "miles" : "37137168"
        },
        "orbiting_body" : "Earth"
      } ],
      "orbital_data" : {
        "orbit_id" : "17",
        "orbit_determination_date" : "2017-08-14 05:36:26",
        "orbit_uncertainty" : "2",
        "minimum_orbit_intersection" : ".127016",
        "jupiter_tisserand_invariant" : "3.243",
        "epoch_osculation" : "2458000.5",
        "eccentricity" : ".68852450210215",
        "semi_major_axis" : "2.204217594226022",
        "inclination" : "20.77107532626468",
        "ascending_node_longitude" : "157.5563352424936",
        "orbital_period" : "1195.308819227415",
        "perihelion_distance" : ".6865597726367515",
        "perihelion_argument" : "232.7271668132684",
        "aphelion_distance" : "3.721875415815294",
        "perihelion_time" : "2458265.130229308664",
        "mean_anomaly" : "280.2993561005476",
        "mean_motion" : ".30117739801559",
        "equinox" : "J2000"
      }
    } ]
  }
}